$$SOE
2459580.500000000, A.D. 2022-Jan-01 00:00:00.0000, -2.872355439251798E+08, -1.116173956352997E+08, -1.140945728152597E+07,
2459587.500000000, A.D. 2022-Jan-08 00:00:00.0000, -2.820629463751467E+08, -1.235486236847229E+08, -1.139036642363876E+07,
2459594.500000000, A.D. 2022-Jan-15 00:00:00.0000, -2.764224911575024E+08, -1.352748943898215E+08, -1.135237971896198E+07,
2459601.500000000, A.D. 2022-Jan-22 00:00:00.0000, -2.703226889373810E+08, -1.467763463971036E+08, -1.129552603104553E+07,
2459608.500000000, A.D. 2022-Jan-29 00:00:00.0000, -2.637730144184861E+08, -1.580335087339366E+08, -1.121987267528829E+07,
2459615.500000000, A.D. 2022-Feb-05 00:00:00.0000, -2.567838871215615E+08, -1.690273580249381E+08, -1.112552528653380E+07,
2459622.500000000, A.D. 2022-Feb-12 00:00:00.0000, -2.493666458929436E+08, -1.797393753078334E+08, -1.101262781150910E+07,
2459629.500000000, A.D. 2022-Feb-19 00:00:00.0000, -2.415335186001365E+08, -1.901515997178228E+08, -1.088136231053682E+07,
2459636.500000000, A.D. 2022-Feb-26 00:00:00.0000, -2.332975884899974E+08, -2.002466794134901E+08, -1.073194850794826E+07,
2459643.500000000, A.D. 2022-Mar-05 00:00:00.0000, -2.246727572486592E+08, -2.100079200335360E+08, -1.056464315919264E+07,
2459650.500000000, A.D. 2022-Mar-12 00:00:00.0000, -2.156737047785662E+08, -2.194193304495025E+08, -1.037973926576297E+07,
2459657.500000000, A.D. 2022-Mar-19 00:00:00.0000, -2.063158458950954E+08, -2.284656655087676E+08, -1.017756514831074E+07,
2459664.500000000, A.D. 2022-Mar-26 00:00:00.0000, -1.966152842183329E+08, -2.371324655162015E+08, -9.958483386119038E+06,
2459671.500000000, A.D. 2022-Apr-02 00:00:00.0000, -1.865887635029750E+08, -2.454060922789568E+08, -9.722889639387265E+06,
2459678.500000000, A.D. 2022-Apr-09 00:00:00.0000, -1.762536164537012E+08, -2.532737615173331E+08, -9.471211386391833E+06,
2459685.500000000, A.D. 2022-Apr-16 00:00:00.0000, -1.656277110023750E+08, -2.607235708457464E+08, -9.203906565728769E+06,
2459692.500000000, A.D. 2022-Apr-23 00:00:00.0000, -1.547293956700973E+08, -2.677445221459637E+08, -8.921461932329521E+06,
2459699.500000000, A.D. 2022-Apr-30 00:00:00.0000, -1.435774462545650E+08, -2.743265405219386E+08, -8.624391153558359E+06,
2459706.500000000, A.D. 2022-May-07 00:00:00.0000, -1.321910111556372E+08, -2.804604917871869E+08, -8.313233101148531E+06,
2459713.500000000, A.D. 2022-May-14 00:00:00.0000, -1.205895543207489E+08, -2.861381954550866E+08, -7.988550230354205E+06,
2459720.500000000, A.D. 2022-May-21 00:00:00.0000, -1.087927981993608E+08, -2.913524325112031E+08, -7.650926809421569E+06,
2459727.500000000, A.D. 2022-May-28 00:00:00.0000, -9.682066752752817E+07, -2.960969489943705E+08, -7.300967045123667E+06,
2459734.500000000, A.D. 2022-Jun-04 00:00:00.0000, -8.469323398944344E+07, -3.003664557960475E+08, -6.939293166766211E+06,
2459741.500000000, A.D. 2022-Jun-11 00:00:00.0000, -7.243066191198412E+07, -3.041566248009471E+08, -6.566543493546009E+06,
2459748.500000000, A.D. 2022-Jun-18 00:00:00.0000, -6.005315522932110E+07, -3.074640815123577E+08, -6.183370499804705E+06,
2459755.500000000, A.D. 2022-Jun-25 00:00:00.0000, -4.758090594128072E+07, -3.102863943827384E+08, -5.790438895335138E+06,
2459762.500000000, A.D. 2022-Jul-02 00:00:00.0000, -3.503404416281807E+07, -3.126220611270301E+08, -5.388423749509111E+06,
2459769.500000000, A.D. 2022-Jul-09 00:00:00.0000, -2.243258958273105E+07, -3.144704920711385E+08, -4.978008691053480E+06,
2459776.500000000, A.D. 2022-Jul-16 00:00:00.0000, -9.796404571181163E+06, -3.158319896938691E+08, -4.559884099593222E+06,
2459783.500000000, A.D. 2022-Jul-23 00:00:00.0000, 2.854848707129403E+06, -3.167077245303807E+08, -4.134745089605957E+06,
2459790.500000000, A.D. 2022-Jul-30 00:00:00.0000, 1.550174712906053E+07, -3.170997110384405E+08, -3.703289576356068E+06,
2459797.500000000, A.D. 2022-Aug-06 00:00:00.0000, 2.812514489730304E+07, -3.170107830314645E+08, -3.266216707694694E+06,
2459804.500000000, A.D. 2022-Aug-13 00:00:00.0000, 4.070621037572559E+07, -3.164445661776580E+08, -2.824225366533861E+06,
2459811.500000000, A.D. 2022-Aug-20 00:00:00.0000, 5.322645985791630E+07, -3.154054483177187E+08, -2.378012645557374E+06,
2459818.500000000, A.D. 2022-Aug-27 00:00:00.0000, 6.566778831313545E+07, -3.138985485707094E+08, -1.928272363365024E+06,
2459825.500000000, A.D. 2022-Sep-03 00:00:00.0000, 7.801249735573660E+07, -3.119296855745598E+08, -1.475693656641960E+06,
2459832.500000000, A.D. 2022-Sep-10 00:00:00.0000, 9.024332054609551E+07, -3.095053450630594E+08, -1.020959656903312E+06,
2459839.500000000, A.D. 2022-Sep-17 00:00:00.0000, 1.023434460898850E+08, -3.066326469945428E+08, -5.647462565760463E+05,
2459846.500000000, A.D. 2022-Sep-24 00:00:00.0000, 1.142965370527564E+08, -3.033193124858415E+08, -1.077209754502177E+05,
2459853.500000000, A.D. 2022-Oct-01 00:00:00.0000, 1.260867494023522E+08, -2.995736307675242E+08, 3.494580484526008E+05,
2459860.500000000, A.D. 2022-Oct-08 00:00:00.0000, 1.376987483674047E+08, -2.954044258201572E+08, 8.061429496580511E+05,
2459867.500000000, A.D. 2022-Oct-15 00:00:00.0000, 1.491177222732333E+08, -2.908210216580179E+08, 1.261697092252731E+06,
2459874.500000000, A.D. 2022-Oct-22 00:00:00.0000, 1.603293917712856E+08, -2.858332080909767E+08, 1.715496156740904E+06,
2459881.500000000, A.D. 2022-Oct-29 00:00:00.0000, 1.713200170687563E+08, -2.804512096875820E+08, 2.166928916881010E+06,
2459888.500000000, A.D. 2022-Nov-05 00:00:00.0000, 1.820764053741859E+08, -2.746856553166579E+08, 2.615397739834532E+06,
2459895.500000000, A.D. 2022-Nov-12 00:00:00.0000, 1.925859167144274E+08, -2.685475471072752E+08, 3.060319096023872E+06,
2459902.500000000, A.D. 2022-Nov-19 00:00:00.0000, 2.028364675252955E+08, -2.620482298735515E+08, 3.501124069632426E+06,
2459909.500000000, A.D. 2022-Nov-26 00:00:00.0000, 2.128165324012549E+08, -2.551993614798590E+08, 3.937258816390708E+06,
2459916.500000000, A.D. 2022-Dec-03 00:00:00.0000, 2.225151442939492E+08, -2.480128842240517E+08, 4.368184955976516E+06,
2459923.500000000, A.D. 2022-Dec-10 00:00:00.0000, 2.319218933275601E+08, -2.405009972752466E+08, 4.793379900183201E+06,
2459930.500000000, A.D. 2022-Dec-17 00:00:00.0000, 2.410269243741043E+08, -2.326761302354835E+08, 5.212337116364166E+06,
2459937.500000000, A.D. 2022-Dec-24 00:00:00.0000, 2.498209336108880E+08, -2.245509179231028E+08, 5.624566314263538E+06,
2459944.500000000, A.D. 2022-Dec-31 00:00:00.0000, 2.582951645265011E+08, -2.161381762905374E+08, 6.029593535657480E+06,
2459951.500000000, A.D. 2023-Jan-07 00:00:00.0000, 2.664414036031874E+08, -2.074508785254706E+08, 6.426961217708454E+06,
2459958.500000000, A.D. 2023-Jan-14 00:00:00.0000, 2.742519738087556E+08, -1.985021308401147E+08, 6.816228453902096E+06,
2459965.500000000, A.D. 2023-Jan-21 00:00:00.0000, 2.817197253509486E+08, -1.893051511109658E+08, 7.196971254528761E+06,
2459972.500000000, A.D. 2023-Jan-28 00:00:00.0000, 2.888380274623168E+08, -1.798732505489597E+08, 7.568782457167417E+06,
2459979.500000000, A.D. 2023-Feb-04 00:00:00.0000, 2.956007611067262E+08, -1.702198153603773E+08, 7.931271558170646E+06,
2459986.500000000, A.D. 2023-Feb-11 00:00:00.0000, 3.020023109023817E+08, -1.603582885806723E+08, 8.284064618722744E+06,
2459993.500000000, A.D. 2023-Feb-18 00:00:00.0000, 3.080375562765231E+08, -1.503021528862786E+08, 8.626804187907062E+06,
2460000.500000000, A.D. 2023-Feb-25 00:00:00.0000, 3.137018621850604E+08, -1.400649145200661E+08, 8.959149208581179E+06,
2460007.500000000, A.D. 2023-Mar-04 00:00:00.0000, 3.189910695649573E+08, -1.296600882797819E+08, 9.280774900967225E+06,
2460014.500000000, A.D. 2023-Mar-11 00:00:00.0000, 3.239014856097519E+08, -1.191011835340271E+08, 9.591372624025166E+06,
2460021.500000000, A.D. 2023-Mar-18 00:00:00.0000, 3.284298739723563E+08, -1.084016912790362E+08, 9.890649708753429E+06,
2460028.500000000, A.D. 2023-Mar-25 00:00:00.0000, 3.325734451486368E+08, -9.757507224565519E+07, 1.017832924292114E+07,
2460035.500000000, A.D. 2023-Apr-01 00:00:00.0000, 3.363298475107896E+08, -8.663474562102872E+07, 1.045414980219586E+07,
2460042.500000000, A.D. 2023-Apr-08 00:00:00.0000, 3.396971584213288E+08, -7.559407711635004E+07, 1.071786528696411E+07,
2460049.500000000, A.D. 2023-Apr-15 00:00:00.0000, 3.426738731365996E+08, -6.446636744918627E+07, 1.096924499192768E+07,
2460056.500000000, A.D. 2023-Apr-22 00:00:00.0000, 3.452588933428888E+08, -5.326484425580700E+07, 1.120807349465961E+07,
2460063.500000000, A.D. 2023-Apr-29 00:00:00.0000, 3.474515180863550E+08, -4.200265513862582E+07, 1.143415029728364E+07,
2460070.500000000, A.D. 2023-May-06 00:00:00.0000, 3.492514353635008E+08, -3.069286002507627E+07, 1.164728952976981E+07,
2460077.500000000, A.D. 2023-May-13 00:00:00.0000, 3.506587134207374E+08, -1.934842369116069E+07, 1.184731973291691E+07,
2460084.500000000, A.D. 2023-May-20 00:00:00.0000, 3.516737920185795E+08, -7.982208901455492E+06, 1.203408366059310E+07,
2460091.500000000, A.D. 2023-May-27 00:00:00.0000, 3.522974738718340E+08, 3.393029843844377E+06, 1.220743808202896E+07,
2460098.500000000, A.D. 2023-Jun-03 00:00:00.0000, 3.525309163384397E+08, 1.476465201914640E+07, 1.236725358181965E+07,
2460105.500000000, A.D. 2023-Jun-10 00:00:00.0000, 3.523756233936216E+08, 2.612013626476962E+07, 1.251341435508763E+07,
2460112.500000000, A.D. 2023-Jun-17 00:00:00.0000, 3.518334379895017E+08, 3.744708503541318E+07, 1.264581798540778E+07,
2460119.500000000, A.D. 2023-Jun-24 00:00:00.0000, 3.509065351278812E+08, 4.873322879503584E+07, 1.276437518094086E+07,
2460126.500000000, A.D. 2023-Jul-01 00:00:00.0000, 3.495974159003695E+08, 5.996643061958028E+07, 1.286900951292335E+07,
2460133.500000000, A.D. 2023-Jul-08 00:00:00.0000, 3.479089008230878E+08, 7.113469206750944E+07, 1.295965737789948E+07,
2460140.500000000, A.D. 2023-Jul-15 00:00:00.0000, 3.458441211989114E+08, 8.222615752318761E+07, 1.303626807112844E+07,
2460147.500000000, A.D. 2023-Jul-22 00:00:00.0000, 3.434065120317470E+08, 9.322911600585657E+07, 1.309880356362927E+07,
$$EOE